[{"OBJECT_NAME":"LYNK TOWER 5","OBJECT_ID":"2024-043Z","EPOCH":"2026-03-09T22:11:51.175104","MEAN_MOTION":15.29454506,"ECCENTRICITY":0.00104056,"INCLINATION":97.5458,"RA_OF_ASC_NODE":204.7305,"ARG_OF_PERICENTER":234.6422,"MEAN_ANOMALY":125.3846,"EPHEMERIS_TYPE":0,"CLASSIFICATION_TYPE":"U","NORAD_CAT_ID":59121,"ELEMENT_SET_NO":999,"REV_AT_EPOCH":11186,"BSTAR":0.00031901545,"MEAN_MOTION_DOT":9.048e-5,"MEAN_MOTION_DDOT":0},{"OBJECT_NAME":"STARLINK-33634","OBJECT_ID":"2025-063Q","EPOCH":"2026-03-09T23:05:12.246720","MEAN_MOTION":15.30210772,"ECCENTRICITY":0.00014251,"INCLINATION":53.1592,"RA_OF_ASC_NODE":51.0129,"ARG_OF_PERICENTER":99.1503,"MEAN_ANOMALY":260.9659,"EPHEMERIS_TYPE":0,"CLASSIFICATION_TYPE":"U","NORAD_CAT_ID":63377,"ELEMENT_SET_NO":999,"REV_AT_EPOCH":5480,"BSTAR":0.00094310296,"MEAN_MOTION_DOT":0.00027686,"MEAN_MOTION_DDOT":0}]
